STARLINK-4043           
1 52836U 22062G   26068.32055190  .00000890  00000+0  74021-4 0  9997
2 52836  53.2193  36.0934 0001347 102.9136 257.2007 15.08838730205723
CURIUM ONE              
1 60242U 24128H   26068.68697111  .00012574  00000+0  74107-3 0  9992
2 60242  61.9790 197.7537 0050891 110.7183 249.9377 15.10847276 91418
